STARLINK-2250_new
1 18593C 21041AS  21326.16441710 -.00001896  00000-0 -12703-3 0  3261
2 18593  53.0556 343.0004 0001525  63.8072  43.1714 15.06407455    16
STARLINK-2250_old
1 28593C 21041AS  21325.13472580 -.00000180  00000-0 -12078-4 0  3256
2 28593  53.0555 347.6229 0001524  64.0848 215.7573 15.06396448    16
